NORAD_CAT_ID,OBJECT_NAME,OBJECT_TYPE,EPOCH,MEAN_MOTION,ECCENTRICITY,INCLINATION,RA_OF_ASC_NODE,ARG_OF_PERICENTER,MEAN_ANOMALY,BSTAR,MEAN_MOTION_DOT,MEAN_MOTION_DDOT,TLE_LINE0,TLE_LINE1,TLE_LINE2,SEMIMAJOR_AXIS,PERIOD,APOGEE,PERIGEE,DECAYED
52681.0,STARLINK-4068,PAYLOAD,2023-07-31 09:50:38,15.08845546,0.0001719,53.2169,99.0681,92.9546,267.1642,0.00034131,5.149e-05,0.0,0 STARLINK-4068,1 52681U 22053AB  23212.41016410  .00005149  00000-0  34131-3 0  9995,2 52681  53.2169  99.0681 0001719  92.9546 267.1642 15.08845546 66989,6917.863,95.437,540.918,538.539,0.0
52681.0,STARLINK-4068,PAYLOAD,2023-08-02 01:35:16,15.08852425,0.0001296,53.2165,91.6324,88.1698,271.9443,0.00054621,8.419e-05,0.0,0 STARLINK-4068,1 52681U 22053AB  23214.06615805  .00008419  00000-0  54621-3 0  9990,2 52681  53.2165  91.6324 0001296  88.1698 271.9443 15.08852425 67237,6917.842,95.437,540.604,538.811,0.0
52681.0,STARLINK-4068,PAYLOAD,2023-08-02 09:32:11,15.0884664,0.0001574,53.2165,90.1471,70.3783,289.7379,0.00027455,4.085e-05,0.0,0 STARLINK-4068,1 52681U 22053AB  23214.39736038  .00004085  00000-0  27455-3 0  9998,2 52681  53.2165  90.1471 0001574  70.3783 289.7379 15.08846640 67283,6917.86,95.437,540.814,538.636,0.0
52681.0,STARLINK-4068,PAYLOAD,2023-08-03 18:55:17,15.08836911,0.0001283,53.2164,83.8979,79.7123,280.4014,1.8471e-05,6e-08,0.0,0 STARLINK-4068,1 52681U 22053AB  23215.78840205  .00000006  00000-0  18471-4 0  9992,2 52681  53.2164  83.8979 0001283  79.7123 280.4014 15.08836911 67499,6917.89,95.438,540.642,538.867,0.0
52681.0,STARLINK-4068,PAYLOAD,2023-08-04 13:59:56,15.08830768,0.0001234,53.2162,80.3291,83.2491,276.8642,-1.588e-05,-5.4e-06,0.0,0 STARLINK-4068,1 52681U 22053AB  23216.58328791 -.00000540  00000-0 -15880-4 0  9998,2 52681  53.2162  80.3291 0001234  83.2491 276.8642 15.08830768 67614,6917.909,95.438,540.627,538.92,0.0
52681.0,STARLINK-4068,PAYLOAD,2023-08-04 21:56:51,15.08842385,0.0001248,53.2167,78.8478,97.2958,262.8176,7.2133e-05,8.6e-06,0.0,0 STARLINK-4068,1 52681U 22053AB  23216.91448169  .00000860  00000-0  72133-4 0  9994,2 52681  53.2167  78.8478 0001248  97.2958 262.8176 15.08842385 67666,6917.873,95.437,540.601,538.875,0.0
52681.0,STARLINK-4068,PAYLOAD,2023-08-06 07:19:57,15.08832035,0.0001265,53.2151,72.6037,127.5762,232.5345,1.7077e-06,-2.61e-06,0.0,0 STARLINK-4068,1 52681U 22053AB  23218.30552691 -.00000261  00000-0  17077-5 0  9998,2 52681  53.2151  72.6037 0001265 127.5762 232.5345 15.08832035 67877,6917.905,95.438,540.645,538.895,0.0
52681.0,STARLINK-4068,PAYLOAD,2023-08-06 21:38:27,15.08827266,0.0001192,53.2179,69.9252,87.2918,272.821,-5.0813e-05,-1.096e-05,0.0,0 STARLINK-4068,1 52681U 22053AB  23218.90170259 -.00001096  00000-0 -50813-4 0  9992,2 52681  53.2179  69.9252 0001192  87.2918 272.8210 15.08827266 67967,6917.919,95.438,540.609,538.96,0.0
52681.0,STARLINK-4068,PAYLOAD,2023-08-07 07:10:45,15.08837369,0.0001251,53.2187,68.1432,87.9069,272.2066,1.3418e-05,-7.4e-07,0.0,0 STARLINK-4068,1 52681U 22053AB  23219.29913639 -.00000074  00000-0  13418-4 0  9996,2 52681  53.2187  68.1432 0001251  87.9069 272.2066 15.08837369 68023,6917.888,95.438,540.619,538.888,0.0
52681.0,STARLINK-4068,PAYLOAD,2023-08-07 18:18:26,15.08848426,0.0001189,53.2183,66.0616,99.2095,260.9031,0.0001178,1.588e-05,0.0,0 STARLINK-4068,1 52681U 22053AB  23219.76280764  .00001588  00000-0  11780-3 0  9993,2 52681  53.2183  66.0616 0001189  99.2095 260.9031 15.08848426 68094,6917.855,95.437,540.542,538.897,0.0
52681.0,STARLINK-4068,PAYLOAD,2023-08-08 07:01:31,15.0884521,0.000109,53.2171,63.6811,82.0352,278.0764,0.00014527,2.025e-05,0.0,0 STARLINK-4068,1 52681U 22053AB  23220.29273051  .00002025  00000-0  14527-3 0  9993,2 52681  53.2171  63.6811 0001090  82.0352 278.0764 15.08845210 68178,6917.864,95.437,540.484,538.975,0.0
52681.0,STARLINK-4068,PAYLOAD,2023-08-08 13:23:04,15.08838705,0.0001163,53.2171,62.4921,82.8635,277.249,0.00024861,3.671e-05,0.0,0 STARLINK-4068,1 52681U 22053AB  23220.55769547  .00003671  00000-0  24861-3 0  9992,2 52681  53.2171  62.4921 0001163  82.8635 277.2490 15.08838705 68213,6917.884,95.438,540.554,538.945,0.0
52681.0,STARLINK-4068,PAYLOAD,2023-08-09 22:46:09,15.0884869,0.0001084,53.2169,56.2454,100.9629,259.1485,2.8168e-05,1.61e-06,0.0,0 STARLINK-4068,1 52681U 22053AB  23221.94872586  .00000161  00000-0  28168-4 0  9990,2 52681  53.2169  56.2454 0001084 100.9629 259.1485 15.08848690 68429,6917.854,95.437,540.469,538.969,0.0
52681.0,STARLINK-4068,PAYLOAD,2023-08-11 19:16:57,15.08842364,0.0001029,53.2183,47.9192,93.064,267.047,8.7419e-05,1.104e-05,0.0,0 STARLINK-4068,1 52681U 22053AB  23223.80344651  .00001104  00000-0  87419-4 0  9996,2 52681  53.2183  47.9192 0001029  93.0640 267.0470 15.08842364 68700,6917.873,95.437,540.45,539.026,0.0
52681.0,STARLINK-4068,PAYLOAD,2023-08-12 11:10:49,15.08835494,0.0001409,53.2174,44.947,76.5739,283.541,6.0345e-05,6.72e-06,0.0,0 STARLINK-4068,1 52681U 22053AB  23224.46585333  .00000672  00000-0  60345-4 0  9991,2 52681  53.2174  44.9470 0001409  76.5739 283.5410 15.08835494 68807,6917.894,95.438,540.734,538.784,0.0
52681.0,STARLINK-4068,PAYLOAD,2023-08-13 18:58:32,15.08837469,0.0001023,53.2186,39.0017,97.83,262.2809,3.0732e-05,2.01e-06,0.0,0 STARLINK-4068,1 52681U 22053AB  23225.79065606  .00000201  00000-0  30732-4 0  9999,2 52681  53.2186  39.0017 0001023  97.8300 262.2809 15.08837469 69007,6917.888,95.438,540.461,539.045,0.0
52681.0,STARLINK-4068,PAYLOAD,2023-08-14 10:52:23,15.08842067,0.0001069,53.2188,36.0276,88.8942,271.2173,0.00013203,1.814e-05,0.0,0 STARLINK-4068,1 52681U 22053AB  23226.45305216  .00001814  00000-0  13203-3 0  9991,2 52681  53.2188  36.0276 0001069  88.8942 271.2173 15.08842067 69100,6917.874,95.437,540.479,539.0,0.0
52681.0,STARLINK-4068,PAYLOAD,2023-08-15 17:04:43,15.08842739,0.0001072,53.2191,30.3776,86.8481,273.2634,0.00014344,1.996e-05,0.0,0 STARLINK-4068,1 52681U 22053AB  23227.71161273  .00001996  00000-0  14344-3 0  9992,2 52681  53.2191  30.3776 0001072  86.8481 273.2634 15.08842739 69296,6917.872,95.437,540.479,538.995,0.0
52681.0,STARLINK-4068,PAYLOAD,2023-08-16 04:12:25,15.08831669,0.0001064,53.2183,28.2956,89.5345,270.5769,0.00024792,3.659e-05,0.0,0 STARLINK-4068,1 52681U 22053AB  23228.17529840  .00003659  00000-0  24792-3 0  9997,2 52681  53.2183  28.2956 0001064  89.5345 270.5769 15.08831669 69360,6917.906,95.438,540.507,539.035,0.0
52681.0,STARLINK-4068,PAYLOAD,2023-08-16 16:55:30,15.08843558,0.0001075,53.2182,25.9172,85.7398,274.3717,2.1314e-05,5.1e-07,0.0,0 STARLINK-4068,1 52681U 22053AB  23228.70521276  .00000051  00000-0  21314-4 0  9992,2 52681  53.2182  25.9172 0001075  85.7398 274.3717 15.08843558 69445,6917.87,95.437,540.478,538.991,0.0
52681.0,STARLINK-4068,PAYLOAD,2023-08-18 16:37:04,15.08836292,9.24e-05,53.219,16.9948,95.8847,264.2251,5.0663e-05,5.19e-06,0.0,0 STARLINK-4068,1 52681U 22053AB  23230.69241558  .00000519  00000-0  50663-4 0  9993,2 52681  53.2190  16.9948 0000924  95.8847 264.2251 15.08836292 69749,6917.892,95.438,540.396,539.118,0.0
52681.0,STARLINK-4068,PAYLOAD,2023-08-19 18:03:13,15.08857025,0.000147,53.2159,12.2379,100.2094,259.9064,3.007e-05,1.91e-06,0.0,0 STARLINK-4068,1 52681U 22053AB  23231.75224402  .00000191  00000-0  30070-4 0  9996,2 52681  53.2159  12.2379 0001470 100.2094 259.9064 15.08857025 69901,6917.828,95.436,540.71,538.676,0.0
52681.0,STARLINK-4068,PAYLOAD,2023-08-20 09:57:06,15.08807673,0.000218,53.213,9.2639,99.7873,260.3366,0.00043513,6.638e-05,0.0,0 STARLINK-4068,1 52681U 22053AB  23232.41465748  .00006638  00000-0  43513-3 0  9997,2 52681  53.2130   9.2639 0002180  99.7873 260.3366 15.08807673 70009,6917.979,95.44,541.352,538.336,0.0
52681.0,STARLINK-4068,PAYLOAD,2023-08-20 17:54:02,15.08834731,0.0001125,53.2194,7.776,91.2062,268.906,2.9704e-05,1.85e-06,0.0,0 STARLINK-4068,1 52681U 22053AB  23232.74585982  .00000185  00000-0  29704-4 0  9994,2 52681  53.2194   7.7760 0001125  91.2062 268.9060 15.08834731 70057,6917.896,95.438,540.54,538.983,0.0
52681.0,STARLINK-4068,PAYLOAD,2023-08-21 16:09:25,15.08866031,0.000109,53.2195,3.6146,89.6079,270.5038,-0.0002756,-4.674e-05,0.0,0 STARLINK-4068,1 52681U 22053AB  23233.67321122 -.00004674  00000-0 -27560-3 0  9997,2 52681  53.2195   3.6146 0001090  89.6079 270.5038 15.08866031 70198,6917.801,95.436,540.42,538.912,0.0
52681.0,STARLINK-4068,PAYLOAD,2023-08-22 08:03:18,15.08831742,0.0001441,53.2206,0.6477,59.3614,300.752,8.6041e-05,1.081e-05,0.0,0 STARLINK-4068,1 52681U 22053AB  23234.33562793  .00001081  00000-0  86041-4 0  9999,2 52681  53.2206   0.6477 0001441  59.3614 300.7520 15.08831742 70298,6917.906,95.438,540.768,538.774,0.0
52681.0,STARLINK-4068,PAYLOAD,2023-08-24 07:44:51,15.0884172,0.0001216,53.2196,351.7206,103.4298,256.683,5.9051e-05,6.52e-06,0.0,0 STARLINK-4068,1 52681U 22053AB  23236.32282401  .00000652  00000-0  59051-4 0  9999,2 52681  53.2196 351.7206 0001216 103.4298 256.6830 15.08841720 70981,6917.875,95.437,540.581,538.899,0.0
52681.0,STARLINK-4068,PAYLOAD,2023-08-25 10:46:25,15.08842485,0.0001398,53.219,346.6667,114.4582,245.6556,5.6174e-05,6.06e-06,0.0,0 STARLINK-4068,1 52681U 22053AB  23237.44890150  .00000606  00000-0  56174-4 0  9991,2 52681  53.2190 346.6667 0001398 114.4582 245.6556 15.08842485 70766,6917.873,95.437,540.705,538.771,0.0
52681.0,STARLINK-4068,PAYLOAD,2023-08-25 12:21:48,15.08843675,0.0001382,53.2196,346.3699,104.6746,255.4399,7.3461e-05,8.82e-06,0.0,0 STARLINK-4068,1 52681U 22053AB  23237.51514081  .00000882  00000-0  73461-4 0  9999,2 52681  53.2196 346.3699 0001382 104.6746 255.4399 15.08843675 71161,6917.869,95.437,540.69,538.778,0.0
52681.0,STARLINK-4068,PAYLOAD,2023-08-25 18:43:19,15.08854927,0.0001347,53.2193,345.1769,112.4179,247.6956,8.1823e-05,1.015e-05,0.0,0 STARLINK-4068,1 52681U 22053AB  23237.78009187  .00001015  00000-0  81823-4 0  9994,2 52681  53.2193 345.1769 0001347 112.4179 247.6956 15.08854927 70816,6917.835,95.437,540.632,538.768,0.0
